BEIDOU-2 IGSO-5         
1 37948U 11073A   25061.56865414 -.00000117  00000+0  00000+0 0  9994
2 37948  48.5370 277.3538 0100930 219.6795 324.6537  1.00272788 48677
BEIDOU-2 G5             
1 38091U 12008A   25061.46850513  .00000055  00000+0  00000+0 0  9996
2 38091   2.3966  71.2458 0013341 249.2324  67.3889  1.00268753 47637
BEIDOU-2 M3             
1 38250U 12018A   25061.20615278 -.00000058  00000+0  00000+0 0  9997
2 38250  56.1491 320.7329 0022256 273.6090  86.1921  1.86233531 87156
BEIDOU-2 M4             
1 38251U 12018B   25060.06350703 -.00000050  00000+0  00000+0 0  9992
2 38251  56.0543 320.0231 0013354 280.0280  79.8792  1.86232003 87137
BEIDOU-2 M6             
1 38775U 12050B   25061.38424465  .00000009  00000+0  00000+0 0  9995
2 38775  56.1288  78.5448 0013943 334.7423  25.2397  1.86230896 84524
BEIDOU-2 G6             
1 38953U 12059A   25061.40114146 -.00000176  00000+0  00000+0 0  9993
2 38953   3.2190  78.3408 0010292 298.2955  12.1481  1.00268208 45170
BEIDOU-3S IGSO-1S       
1 40549U 15019A   25061.63217911 -.00000129  00000+0  00000+0 0  9993
2 40549  50.0850 301.1215 0033861 195.2419 342.3589  1.00247422 36338
BEIDOU-3S M2S           
1 40748U 15037A   25060.26538311 -.00000050  00000+0  00000+0 0  9995
2 40748  55.2784 318.2754 0009523 271.4724  88.4771  1.86229031 65314
BEIDOU-3S M1S           
1 40749U 15037B   25059.99657145 -.00000048  00000+0  00000+0 0  9998
2 40749  55.2753 318.2777 0004519   8.9425 351.1243  1.86253623 65315
BEIDOU-3S IGSO-2S       
1 40938U 15053A   25043.08725264 -.00000066  00000+0  00000+0 0  9997
2 40938  49.9805 264.5883 0052128 186.8108 174.8851  1.00251841 34448
BEIDOU-2 IGSO-6         
1 41434U 16021A   25061.63109359 -.00000142  00000+0  00000+0 0  9992
2 41434  59.5623  42.7434 0053812 230.1180 210.7033  1.00263978 32744
