[
    {
        "OBJECT_NAME": "BEIDOU-2 IGSO-5",
        "OBJECT_ID": "2011-073A",
        "EPOCH": "2025-03-02T13:38:51.717696",
        "MEAN_MOTION": 1.00272788,
        "ECCENTRICITY": 0.010093,
        "INCLINATION": 48.537,
        "RA_OF_ASC_NODE": 277.3538,
        "ARG_OF_PERICENTER": 219.6795,
        "MEAN_ANOMALY": 324.6537,
        "EPHEMERIS_TYPE": 0,
        "CLASSIFICATION_TYPE": "U",
        "NORAD_CAT_ID": 37948,
        "ELEMENT_SET_NO": 999,
        "REV_AT_EPOCH": 4867,
        "BSTAR": 0,
        "MEAN_MOTION_DOT": -1.17e-06,
        "MEAN_MOTION_DDOT": 0
    },
    {
        "OBJECT_NAME": "BEIDOU-2 G5",
        "OBJECT_ID": "2012-008A",
        "EPOCH": "2025-03-02T11:14:38.843232",
        "MEAN_MOTION": 1.00268753,
        "ECCENTRICITY": 0.0013341,
        "INCLINATION": 2.3966,
        "RA_OF_ASC_NODE": 71.2458,
        "ARG_OF_PERICENTER": 249.2324,
        "MEAN_ANOMALY": 67.3889,
        "EPHEMERIS_TYPE": 0,
        "CLASSIFICATION_TYPE": "U",
        "NORAD_CAT_ID": 38091,
        "ELEMENT_SET_NO": 999,
        "REV_AT_EPOCH": 4763,
        "BSTAR": 0,
        "MEAN_MOTION_DOT": 5.5e-07,
        "MEAN_MOTION_DDOT": 0
    },
    {
        "OBJECT_NAME": "BEIDOU-2 M3",
        "OBJECT_ID": "2012-018A",
        "EPOCH": "2025-03-02T04:56:51.600192",
        "MEAN_MOTION": 1.86233531,
        "ECCENTRICITY": 0.0022256,
        "INCLINATION": 56.1491,
        "RA_OF_ASC_NODE": 320.7329,
        "ARG_OF_PERICENTER": 273.609,
        "MEAN_ANOMALY": 86.1921,
        "EPHEMERIS_TYPE": 0,
        "CLASSIFICATION_TYPE": "U",
        "NORAD_CAT_ID": 38250,
        "ELEMENT_SET_NO": 999,
        "REV_AT_EPOCH": 8715,
        "BSTAR": 0,
        "MEAN_MOTION_DOT": -5.8e-07,
        "MEAN_MOTION_DDOT": 0
    },
    {
        "OBJECT_NAME": "BEIDOU-2 M4",
        "OBJECT_ID": "2012-018B",
        "EPOCH": "2025-03-01T01:31:27.007392",
        "MEAN_MOTION": 1.86232003,
        "ECCENTRICITY": 0.0013354,
        "INCLINATION": 56.0543,
        "RA_OF_ASC_NODE": 320.0231,
        "ARG_OF_PERICENTER": 280.028,
        "MEAN_ANOMALY": 79.8792,
        "EPHEMERIS_TYPE": 0,
        "CLASSIFICATION_TYPE": "U",
        "NORAD_CAT_ID": 38251,
        "ELEMENT_SET_NO": 999,
        "REV_AT_EPOCH": 8713,
        "BSTAR": 0,
        "MEAN_MOTION_DOT": -5e-07,
        "MEAN_MOTION_DDOT": 0
    },
    {
        "OBJECT_NAME": "BEIDOU-2 M6",
        "OBJECT_ID": "2012-050B",
        "EPOCH": "2025-03-02T09:13:18.737760",
        "MEAN_MOTION": 1.86230896,
        "ECCENTRICITY": 0.0013943,
        "INCLINATION": 56.1288,
        "RA_OF_ASC_NODE": 78.5448,
        "ARG_OF_PERICENTER": 334.7423,
        "MEAN_ANOMALY": 25.2397,
        "EPHEMERIS_TYPE": 0,
        "CLASSIFICATION_TYPE": "U",
        "NORAD_CAT_ID": 38775,
        "ELEMENT_SET_NO": 999,
        "REV_AT_EPOCH": 8452,
        "BSTAR": 0,
        "MEAN_MOTION_DOT": 9e-08,
        "MEAN_MOTION_DDOT": 0
    },
    {
        "OBJECT_NAME": "BEIDOU-2 G6",
        "OBJECT_ID": "2012-059A",
        "EPOCH": "2025-03-02T09:37:38.622144",
        "MEAN_MOTION": 1.00268208,
        "ECCENTRICITY": 0.0010292,
        "INCLINATION": 3.219,
        "RA_OF_ASC_NODE": 78.3408,
        "ARG_OF_PERICENTER": 298.2955,
        "MEAN_ANOMALY": 12.1481,
        "EPHEMERIS_TYPE": 0,
        "CLASSIFICATION_TYPE": "U",
        "NORAD_CAT_ID": 38953,
        "ELEMENT_SET_NO": 999,
        "REV_AT_EPOCH": 4517,
        "BSTAR": 0,
        "MEAN_MOTION_DOT": -1.76e-06,
        "MEAN_MOTION_DDOT": 0
    },
    {
        "OBJECT_NAME": "BEIDOU-3S IGSO-1S",
        "OBJECT_ID": "2015-019A",
        "EPOCH": "2025-03-02T15:10:20.275104",
        "MEAN_MOTION": 1.00247422,
        "ECCENTRICITY": 0.0033861,
        "INCLINATION": 50.085,
        "RA_OF_ASC_NODE": 301.1215,
        "ARG_OF_PERICENTER": 195.2419,
        "MEAN_ANOMALY": 342.3589,
        "EPHEMERIS_TYPE": 0,
        "CLASSIFICATION_TYPE": "U",
        "NORAD_CAT_ID": 40549,
        "ELEMENT_SET_NO": 999,
        "REV_AT_EPOCH": 3633,
        "BSTAR": 0,
        "MEAN_MOTION_DOT": -1.29e-06,
        "MEAN_MOTION_DDOT": 0
    },
    {
        "OBJECT_NAME": "BEIDOU-3S M2S",
        "OBJECT_ID": "2015-037A",
        "EPOCH": "2025-03-01T06:22:09.100704",
        "MEAN_MOTION": 1.86229031,
        "ECCENTRICITY": 0.0009523,
        "INCLINATION": 55.2784,
        "RA_OF_ASC_NODE": 318.2754,
        "ARG_OF_PERICENTER": 271.4724,
        "MEAN_ANOMALY": 88.4771,
        "EPHEMERIS_TYPE": 0,
        "CLASSIFICATION_TYPE": "U",
        "NORAD_CAT_ID": 40748,
        "ELEMENT_SET_NO": 999,
        "REV_AT_EPOCH": 6531,
        "BSTAR": 0,
        "MEAN_MOTION_DOT": -5e-07,
        "MEAN_MOTION_DDOT": 0
    },
    {
        "OBJECT_NAME": "BEIDOU-3S M1S",
        "OBJECT_ID": "2015-037B",
        "EPOCH": "2025-02-28T23:55:03.773280",
        "MEAN_MOTION": 1.86253623,
        "ECCENTRICITY": 0.0004519,
        "INCLINATION": 55.2753,
        "RA_OF_ASC_NODE": 318.2777,
        "ARG_OF_PERICENTER": 8.9425,
        "MEAN_ANOMALY": 351.1243,
        "EPHEMERIS_TYPE": 0,
        "CLASSIFICATION_TYPE": "U",
        "NORAD_CAT_ID": 40749,
        "ELEMENT_SET_NO": 999,
        "REV_AT_EPOCH": 6531,
        "BSTAR": 0,
        "MEAN_MOTION_DOT": -4.8e-07,
        "MEAN_MOTION_DDOT": 0
    },
    {
        "OBJECT_NAME": "BEIDOU-3S IGSO-2S",
        "OBJECT_ID": "2015-053A",
        "EPOCH": "2025-02-12T02:05:38.628096",
        "MEAN_MOTION": 1.00251841,
        "ECCENTRICITY": 0.0052128,
        "INCLINATION": 49.9805,
        "RA_OF_ASC_NODE": 264.5883,
        "ARG_OF_PERICENTER": 186.8108,
        "MEAN_ANOMALY": 174.8851,
        "EPHEMERIS_TYPE": 0,
        "CLASSIFICATION_TYPE": "U",
        "NORAD_CAT_ID": 40938,
        "ELEMENT_SET_NO": 999,
        "REV_AT_EPOCH": 3444,
        "BSTAR": 0,
        "MEAN_MOTION_DOT": -6.6e-07,
        "MEAN_MOTION_DDOT": 0
    },
    {
        "OBJECT_NAME": "BEIDOU-2 IGSO-6",
        "OBJECT_ID": "2016-021A",
        "EPOCH": "2025-03-02T15:08:46.486176",
        "MEAN_MOTION": 1.00263978,
        "ECCENTRICITY": 0.0053812,
        "INCLINATION": 59.5623,
        "RA_OF_ASC_NODE": 42.7434,
        "ARG_OF_PERICENTER": 230.118,
        "MEAN_ANOMALY": 210.7033,
        "EPHEMERIS_TYPE": 0,
        "CLASSIFICATION_TYPE": "U",
        "NORAD_CAT_ID": 41434,
        "ELEMENT_SET_NO": 999,
        "REV_AT_EPOCH": 3274,
        "BSTAR": 0,
        "MEAN_MOTION_DOT": -1.42e-06,
        "MEAN_MOTION_DDOT": 0
    }
]